EUTELSAT 8 WEST B       
1 40875U 15039B   25364.82406034 -.00000047  00000+0  00000+0 0  9999
2 40875   0.0652 346.4795 0004142 292.7984 108.8862  1.00271372 37960
EUTELSAT 9B             
1 41310U 16005A   25364.82475690  .00000079  00000+0  00000+0 0  9996
2 41310   0.0395  60.3810 0004956 217.7834 127.2290  1.00270896 36423
EUTELSAT 65 WEST A      
1 41382U 16014A   25364.81002347 -.00000258  00000+0  00000+0 0  9999
2 41382   0.0767 308.6036 0002617 334.1145  43.1769  1.00268980 35847
EUTELSAT 117 WEST B     
1 41589U 16038B   25364.65711329  .00000007  00000+0  00000+0 0  9994
2 41589   0.0118 155.2869 0000411 250.1849 173.4309  1.00273176 34977
EUTELSAT 172B           
1 42741U 17029B   25364.78572742  .00000012  00000+0  00000+0 0  9990
2 42741   0.0371 149.0911 0000277  75.8990 329.3253  1.00270254 32047
EUTELSAT 7C             
1 44334U 19034B   25364.53889919  .00000067  00000+0  00000+0 0  9998
2 44334   0.0739 179.3203 0003486  84.6906  36.1832  1.00270305  5149
EUTELSAT 5 WEST B       
1 44624U 19067A   25364.82406034 -.00000024  00000+0  00000+0 0  9995
2 44624   0.0798 320.3459 0003426 317.8898 112.9251  1.00270215 22745
EUTELSAT KONNECT        
1 45027U 20005B   25364.61039965  .00000068  00000+0  00000+0 0  9996
2 45027   0.0701  93.8451 0001767 181.3040  51.0780  1.00270091 22641
